WORLDVIEW-1 (WV-1)      
1 32060U 07041A   26201.89960002  .00004021  00000+0  16602-3 0  9992
2 32060  97.3904 321.1729 0002091 183.2525 176.8699 15.24596982 48018
WORLDVIEW-2 (WV-2)      
1 35946U 09055A   26201.91293029  .00000057  00000+0  33445-4 0  9996
2 35946  98.4751 274.9033 0005492 116.2687 243.9065 14.37908005880497
WORLDVIEW-3 (WV-3)      
1 40115U 14048A   26201.92431960  .00000480  00000+0  62401-4 0  9991
2 40115  97.8551 276.2898 0001715 147.4126 212.7195 14.85069654646910
